[{"OBJECT_NAME":"STARLINK-4409","OBJECT_ID":"2022-084Q","EPOCH":"2026-03-09T17:05:49.195680","MEAN_MOTION":15.05646193,"ECCENTRICITY":7.741e-5,"INCLINATION":97.6037,"RA_OF_ASC_NODE":131.2454,"ARG_OF_PERICENTER":138.4317,"MEAN_ANOMALY":221.6969,"EPHEMERIS_TYPE":0,"CLASSIFICATION_TYPE":"U","NORAD_CAT_ID":53203,"ELEMENT_SET_NO":999,"REV_AT_EPOCH":19938,"BSTAR":3.97646e-7,"MEAN_MOTION_DOT":-5.5e-7,"MEAN_MOTION_DDOT":0},{"OBJECT_NAME":"PEGASUS DEB","OBJECT_ID":"1994-029AFD","EPOCH":"2026-03-09T13:52:28.077600","MEAN_MOTION":14.64924575,"ECCENTRICITY":0.0184481,"INCLINATION":81.9461,"RA_OF_ASC_NODE":171.1004,"ARG_OF_PERICENTER":322.7223,"MEAN_ANOMALY":96.435,"EPHEMERIS_TYPE":0,"CLASSIFICATION_TYPE":"U","NORAD_CAT_ID":39318,"ELEMENT_SET_NO":999,"REV_AT_EPOCH":26349,"BSTAR":0.00019214,"MEAN_MOTION_DOT":1.341e-5,"MEAN_MOTION_DDOT":0}]
